IRIDIUM 155             
1 43573U 18061E   20256.38094874  .00000068  00000-0  17046-4 0  9992
2 43573  86.4008 215.8646 0002778  75.6444 284.5060 14.34211506111810
IRIDIUM 154             
1 43574U 18061F   20256.43169845  .00000068  00000-0  17316-4 0  9990
2 43574  86.4001 215.8769 0002252  93.7649 266.3805 14.34218484111878
IRIDIUM 163             
1 43575U 18061G   20256.41266151  .00000074  00000-0  19350-4 0  9994
2 43575  86.3997 215.8640 0001636  85.0874 275.0508 14.34218578111847
IRIDIUM 156             
1 43576U 18061H   20256.38730410  .00000072  00000-0  18811-4 0  9994
2 43576  86.3998 215.8794 0002086  76.7767 283.3661 14.34218554111832
IRIDIUM 164             
1 43577U 18061J   20256.43804107  .00000074  00000-0  19253-4 0  9999
2 43577  86.4000 215.8667 0002123  91.6254 268.5185 14.34216110111883
IRIDIUM 159             
1 43578U 18061K   20256.40632778  .00000070  00000-0  18084-4 0  9997
2 43578  86.3996 215.8607 0002220  90.9916 269.1534 14.34218303111843
IRIDIUM 180             
1 43922U 19002A   20256.47557957  .00000027  00000-0  27220-5 0  9993
2 43922  86.4014 152.7732 0001863 114.5097 245.6293 14.34215232 87460
IRIDIUM 176             
1 43923U 19002B   20256.42253221  .00000112  00000-0  13898-4 0  9996
2 43923  86.6150 152.8249 0002295  89.0373 271.1107 14.72252976 89728
IRIDIUM 168             
1 43924U 19002C   20256.46924399  .00000061  00000-0  14829-4 0  9990
2 43924  86.4017 152.7936 0002132  91.9366 268.2074 14.34219749 87441
IRIDIUM 173             
1 43925U 19002D   20256.45656905  .00000057  00000-0  13327-4 0  9992
2 43925  86.4012 152.7732 0002054  88.8833 271.2598 14.34217756 87438
IRIDIUM 169             
1 43926U 19002E   20256.39887950  .00000073  00000-0  17452-4 0  9993
2 43926  86.4295 184.3397 0007292  71.2522 288.9467 14.38607580 87768
IRIDIUM 172             
1 43927U 19002F   20256.45021784  .00000062  00000-0  15002-4 0  9993
2 43927  86.4013 152.7774 0002048  91.9250 268.2181 14.34218699 87439
IRIDIUM 175             
1 43928U 19002G   20256.28041057  .00000111  00000-0  13683-4 0  9998
2 43928  86.6134 152.7590 0002033  65.4115 294.7314 14.72253128 89692
IRIDIUM 171             
1 43929U 19002H   20256.29165119  .00000063  00000-0  15305-4 0  9995
2 43929  86.4023 152.9161 0002154  91.5641 268.5801 14.34220471 87402
IRIDIUM 170             
1 43930U 19002J   20256.42872858  .00000118  00000-0  14818-4 0  9996
2 43930  86.6149 152.8292 0002057  86.9258 273.2195 14.72255858 89739
IRIDIUM 167             
1 43931U 19002K   20256.28530208  .00000060  00000-0  14421-4 0  9997
2 43931  86.4015 152.8500 0001964 109.4166 250.7242 14.34215730 87405
